[
  {
    "COMMENT": "GENERATED VIA SPACETRACK.ORG API",
    "ORIGINATOR": "18 SPCS",
    "NORAD_CAT_ID": "43437",
    "OBJECT_NAME": "SENTINEL 3B",
    "OBJECT_TYPE": "PAYLOAD",
    "CLASSIFICATION_TYPE": "U",
    "INTLDES": "18039A",
    "EPOCH": "2023-04-29 17:45:25",
    "EPOCH_MICROSECONDS": "959456",
    "MEAN_MOTION": "14.267344",
    "ECCENTRICITY": "0.0001298",
    "INCLINATION": "98.6301",
    "RA_OF_ASC_NODE": "187.5226",
    "ARG_OF_PERICENTER": "84.1069",
    "MEAN_ANOMALY": "276.026",
    "EPHEMERIS_TYPE": "0",
    "ELEMENT_SET_NO": "999",
    "REV_AT_EPOCH": "26093",
    "BSTAR": "0.000089754",
    "MEAN_MOTION_DOT": "0.00000174",
    "MEAN_MOTION_DDOT": "0",
    "FILE": "3896645",
    "TLE_LINE0": "0 SENTINEL 3B",
    "TLE_LINE1": "1 43437U 18039A   23119.73988379  .00000174  00000-0  89754-4 0  9991",
    "TLE_LINE2": "2 43437  98.6301 187.5226 0001298  84.1069 276.0260 14.26734400260933",
    "OBJECT_ID": "2018-039A",
    "OBJECT_NUMBER": "43437",
    "SEMIMAJOR_AXIS": "7180.804",
    "PERIOD": "100.930",
    "APOGEE": "803.601",
    "PERIGEE": "801.737",
    "DECAYED": "0"
  },
  {
    "COMMENT": "GENERATED VIA SPACETRACK.ORG API",
    "ORIGINATOR": "18 SPCS",
    "NORAD_CAT_ID": "43437",
    "OBJECT_NAME": "SENTINEL 3B",
    "OBJECT_TYPE": "PAYLOAD",
    "CLASSIFICATION_TYPE": "U",
    "INTLDES": "18039A",
    "EPOCH": "2023-04-30 03:51:21",
    "EPOCH_MICROSECONDS": "339360",
    "MEAN_MOTION": "14.26734614",
    "ECCENTRICITY": "0.0001288",
    "INCLINATION": "98.6301",
    "RA_OF_ASC_NODE": "187.9375",
    "ARG_OF_PERICENTER": "83.9476",
    "MEAN_ANOMALY": "276.1851",
    "EPHEMERIS_TYPE": "0",
    "ELEMENT_SET_NO": "999",
    "REV_AT_EPOCH": "26099",
    "BSTAR": "0.000089377",
    "MEAN_MOTION_DOT": "0.00000173",
    "MEAN_MOTION_DDOT": "0",
    "FILE": "3897442",
    "TLE_LINE0": "0 SENTINEL 3B",
    "TLE_LINE1": "1 43437U 18039A   23120.16066365  .00000173  00000-0  89377-4 0  9992",
    "TLE_LINE2": "2 43437  98.6301 187.9375 0001288  83.9476 276.1851 14.26734614260990",
    "OBJECT_ID": "2018-039A",
    "OBJECT_NUMBER": "43437",
    "SEMIMAJOR_AXIS": "7180.804",
    "PERIOD": "100.930",
    "APOGEE": "803.593",
    "PERIGEE": "801.744",
    "DECAYED": "0"
  },
  {
    "COMMENT": "GENERATED VIA SPACETRACK.ORG API",
    "ORIGINATOR": "18 SPCS",
    "NORAD_CAT_ID": "43437",
    "OBJECT_NAME": "SENTINEL 3B",
    "OBJECT_TYPE": "PAYLOAD",
    "CLASSIFICATION_TYPE": "U",
    "INTLDES": "18039A",
    "EPOCH": "2023-04-30 19:00:14",
    "EPOCH_MICROSECONDS": "396256",
    "MEAN_MOTION": "14.26734901",
    "ECCENTRICITY": "0.0001283",
    "INCLINATION": "98.63",
    "RA_OF_ASC_NODE": "188.5601",
    "ARG_OF_PERICENTER": "84.1056",
    "MEAN_ANOMALY": "276.0271",
    "EPHEMERIS_TYPE": "0",
    "ELEMENT_SET_NO": "999",
    "REV_AT_EPOCH": "26108",
    "BSTAR": "0.000086184",
    "MEAN_MOTION_DOT": "0.00000165",
    "MEAN_MOTION_DDOT": "0",
    "FILE": "3897586",
    "TLE_LINE0": "0 SENTINEL 3B",
    "TLE_LINE1": "1 43437U 18039A   23120.79183329  .00000165  00000-0  86184-4 0  9995",
    "TLE_LINE2": "2 43437  98.6300 188.5601 0001283  84.1056 276.0271 14.26734901261085",
    "OBJECT_ID": "2018-039A",
    "OBJECT_NUMBER": "43437",
    "SEMIMAJOR_AXIS": "7180.803",
    "PERIOD": "100.930",
    "APOGEE": "803.589",
    "PERIGEE": "801.746",
    "DECAYED": "0"
  },
  {
    "COMMENT": "GENERATED VIA SPACETRACK.ORG API",
    "ORIGINATOR": "18 SPCS",
    "NORAD_CAT_ID": "43437",
    "OBJECT_NAME": "SENTINEL 3B",
    "OBJECT_TYPE": "PAYLOAD",
    "CLASSIFICATION_TYPE": "U",
    "INTLDES": "18039A",
    "EPOCH": "2023-05-01 03:25:10",
    "EPOCH_MICROSECONDS": "532064",
    "MEAN_MOTION": "14.26735127",
    "ECCENTRICITY": "0.0001269",
    "INCLINATION": "98.63",
    "RA_OF_ASC_NODE": "188.9059",
    "ARG_OF_PERICENTER": "84.0026",
    "MEAN_ANOMALY": "276.1299",
    "EPHEMERIS_TYPE": "0",
    "ELEMENT_SET_NO": "999",
    "REV_AT_EPOCH": "26113",
    "BSTAR": "0.000090049",
    "MEAN_MOTION_DOT": "0.00000174",
    "MEAN_MOTION_DDOT": "0",
    "FILE": "3898258",
    "TLE_LINE0": "0 SENTINEL 3B",
    "TLE_LINE1": "1 43437U 18039A   23121.14248301  .00000174  00000-0  90049-4 0  9992",
    "TLE_LINE2": "2 43437  98.6300 188.9059 0001269  84.0026 276.1299 14.26735127261134",
    "OBJECT_ID": "2018-039A",
    "OBJECT_NUMBER": "43437",
    "SEMIMAJOR_AXIS": "7180.802",
    "PERIOD": "100.930",
    "APOGEE": "803.578",
    "PERIGEE": "801.756",
    "DECAYED": "0"
  },
  {
    "COMMENT": "GENERATED VIA SPACETRACK.ORG API",
    "ORIGINATOR": "18 SPCS",
    "NORAD_CAT_ID": "43437",
    "OBJECT_NAME": "SENTINEL 3B",
    "OBJECT_TYPE": "PAYLOAD",
    "CLASSIFICATION_TYPE": "U",
    "INTLDES": "18039A",
    "EPOCH": "2023-05-01 18:34:03",
    "EPOCH_MICROSECONDS": "577728",
    "MEAN_MOTION": "14.26735376",
    "ECCENTRICITY": "0.0001251",
    "INCLINATION": "98.63",
    "RA_OF_ASC_NODE": "189.5285",
    "ARG_OF_PERICENTER": "84.0934",
    "MEAN_ANOMALY": "276.0389",
    "EPHEMERIS_TYPE": "0",
    "ELEMENT_SET_NO": "999",
    "REV_AT_EPOCH": "26122",
    "BSTAR": "0.000089042",
    "MEAN_MOTION_DOT": "0.00000172",
    "MEAN_MOTION_DDOT": "0",
    "FILE": "3898518",
    "TLE_LINE0": "0 SENTINEL 3B",
    "TLE_LINE1": "1 43437U 18039A   23121.77365252  .00000172  00000-0  89042-4 0  9995",
    "TLE_LINE2": "2 43437  98.6300 189.5285 0001251  84.0934 276.0389 14.26735376261226",
    "OBJECT_ID": "2018-039A",
    "OBJECT_NUMBER": "43437",
    "SEMIMAJOR_AXIS": "7180.801",
    "PERIOD": "100.930",
    "APOGEE": "803.564",
    "PERIGEE": "801.768",
    "DECAYED": "0"
  },
  {
    "COMMENT": "GENERATED VIA SPACETRACK.ORG API",
    "ORIGINATOR": "18 SPCS",
    "NORAD_CAT_ID": "43437",
    "OBJECT_NAME": "SENTINEL 3B",
    "OBJECT_TYPE": "PAYLOAD",
    "CLASSIFICATION_TYPE": "U",
    "INTLDES": "18039A",
    "EPOCH": "2023-05-02 04:39:58",
    "EPOCH_MICROSECONDS": "941216",
    "MEAN_MOTION": "14.26735589",
    "ECCENTRICITY": "0.0001257",
    "INCLINATION": "98.6299",
    "RA_OF_ASC_NODE": "189.9435",
    "ARG_OF_PERICENTER": "84.1188",
    "MEAN_ANOMALY": "276.0136",
    "EPHEMERIS_TYPE": "0",
    "ELEMENT_SET_NO": "999",
    "REV_AT_EPOCH": "26128",
    "BSTAR": "0.000092799",
    "MEAN_MOTION_DOT": "0.00000181",
    "MEAN_MOTION_DDOT": "0",
    "FILE": "3898645",
    "TLE_LINE0": "0 SENTINEL 3B",
    "TLE_LINE1": "1 43437U 18039A   23122.19443219  .00000181  00000-0  92799-4 0  9995",
    "TLE_LINE2": "2 43437  98.6299 189.9435 0001257  84.1188 276.0136 14.26735589261284",
    "OBJECT_ID": "2018-039A",
    "OBJECT_NUMBER": "43437",
    "SEMIMAJOR_AXIS": "7180.800",
    "PERIOD": "100.930",
    "APOGEE": "803.568",
    "PERIGEE": "801.763",
    "DECAYED": "0"
  },
  {
    "COMMENT": "GENERATED VIA SPACETRACK.ORG API",
    "ORIGINATOR": "18 SPCS",
    "NORAD_CAT_ID": "43437",
    "OBJECT_NAME": "SENTINEL 3B",
    "OBJECT_TYPE": "PAYLOAD",
    "CLASSIFICATION_TYPE": "U",
    "INTLDES": "18039A",
    "EPOCH": "2023-05-02 04:39:58",
    "EPOCH_MICROSECONDS": "941216",
    "MEAN_MOTION": "14.26735589",
    "ECCENTRICITY": "0.0001257",
    "INCLINATION": "98.6299",
    "RA_OF_ASC_NODE": "189.9435",
    "ARG_OF_PERICENTER": "84.1188",
    "MEAN_ANOMALY": "276.0136",
    "EPHEMERIS_TYPE": "0",
    "ELEMENT_SET_NO": "999",
    "REV_AT_EPOCH": "26128",
    "BSTAR": "0.000092799",
    "MEAN_MOTION_DOT": "0.00000181",
    "MEAN_MOTION_DDOT": "0",
    "FILE": "3899068",
    "TLE_LINE0": "0 SENTINEL 3B",
    "TLE_LINE1": "1 43437U 18039A   23122.19443219  .00000181  00000-0  92799-4 0  9995",
    "TLE_LINE2": "2 43437  98.6299 189.9435 0001257  84.1188 276.0136 14.26735589261284",
    "OBJECT_ID": "2018-039A",
    "OBJECT_NUMBER": "43437",
    "SEMIMAJOR_AXIS": "7180.800",
    "PERIOD": "100.930",
    "APOGEE": "803.568",
    "PERIGEE": "801.763",
    "DECAYED": "0"
  },
  {
    "COMMENT": "GENERATED VIA SPACETRACK.ORG API",
    "ORIGINATOR": "18 SPCS",
    "NORAD_CAT_ID": "43437",
    "OBJECT_NAME": "SENTINEL 3B",
    "OBJECT_TYPE": "PAYLOAD",
    "CLASSIFICATION_TYPE": "U",
    "INTLDES": "18039A",
    "EPOCH": "2023-05-02 18:07:52",
    "EPOCH_MICROSECONDS": "747968",
    "MEAN_MOTION": "14.26735807",
    "ECCENTRICITY": "0.0001257",
    "INCLINATION": "98.6299",
    "RA_OF_ASC_NODE": "190.4968",
    "ARG_OF_PERICENTER": "83.8406",
    "MEAN_ANOMALY": "276.2918",
    "EPHEMERIS_TYPE": "0",
    "ELEMENT_SET_NO": "999",
    "REV_AT_EPOCH": "26136",
    "BSTAR": "0.000091186",
    "MEAN_MOTION_DOT": "0.00000177",
    "MEAN_MOTION_DDOT": "0",
    "FILE": "3899277",
    "TLE_LINE0": "0 SENTINEL 3B",
    "TLE_LINE1": "1 43437U 18039A   23122.75547162  .00000177  00000-0  91186-4 0  9993",
    "TLE_LINE2": "2 43437  98.6299 190.4968 0001257  83.8406 276.2918 14.26735807261363",
    "OBJECT_ID": "2018-039A",
    "OBJECT_NUMBER": "43437",
    "SEMIMAJOR_AXIS": "7180.800",
    "PERIOD": "100.930",
    "APOGEE": "803.567",
    "PERIGEE": "801.762",
    "DECAYED": "0"
  }
]